STAR ONE C4             
1 40733U 15034B   25091.53794670 -.00000271  00000+0  00000+0 0  9997
2 40733   0.0431   7.6072 0002675   0.2902 305.8807  1.00268976 35583
WGS F7 (USA 263)        
1 40746U 15036A   25091.48788826  .00000011  00000+0  00000+0 0  9994
2 40746   0.0117 208.6653 0000139  37.4878 294.5509  1.00272092 35445
INTELSAT 34 (IS-34)     
1 40874U 15039A   25091.52683662 -.00000291  00000+0  00000+0 0  9997
2 40874   0.0160 252.0944 0001129 348.4788  83.7128  1.00267220 35190
EUTELSAT 8 WEST B       
1 40875U 15039B   25091.27961522 -.00000071  00000+0  00000+0 0  9990
2 40875   0.0689 352.5848 0003774  19.9025 270.0605  1.00272434 35215
GSAT-6                  
1 40880U 15041A   25091.45808726 -.00000165  00000+0  00000+0 0  9999
2 40880   0.7750  88.6242 0003052 279.5454  69.2870  1.00269946 35161
INMARSAT 5-F3           
1 40882U 15042A   25091.27614088  .00000045  00000+0  00000+0 0  9994
2 40882   0.0422  71.2862 0000314 264.2961 133.3097  1.00271111 35138
MUOS-4                  
1 40887U 15044A   25091.48269322 -.00000098  00000+0  00000+0 0  9990
2 40887   3.5427  37.7143 0058603 358.3189  42.8098  1.00271280 35138
TJS-1                   
1 40892U 15046A   25091.61746116 -.00000162  00000+0  00000+0 0  9996
2 40892   0.0859 246.3165 0002002 114.0127 207.1332  1.00274068 35143
EXPRESS-AM8             
1 40895U 15048A   25091.25045251 -.00000117  00000+0  00000+0 0  9993
2 40895   0.0141 244.0834 0000516  50.1527 331.7762  1.00269718 34911
SKY MUSTER 1 (NBN1A)    
1 40940U 15054A   25091.63254845 -.00000285  00000+0  00000+0 0  9990
2 40940   0.0118 240.6959 0001724 123.5026 193.9994  1.00270275 34833
ARSAT 2                 
1 40941U 15054B   25091.44427940 -.00000230  00000+0  00000+0 0  9998
2 40941   0.0226 295.3621 0001693  57.1758 276.4255  1.00271157 34888
MORELOS 3               
1 40946U 15056A   25091.55451044 -.00000049  00000+0  00000+0 0  9997
2 40946   2.9761   1.6149 0003326   3.8683 271.1864  1.00272666 34852
APSTAR-9                
1 40982U 15059A   25091.63062252 -.00000272  00000+0  00000+0 0  9996
2 40982   0.0541  52.6093 0001382 290.2475 216.3964  1.00271928 34696
TURKSAT 4B              
1 40984U 15060A   25091.48016895  .00000109  00000+0  00000+0 0  9993
2 40984   0.0158 149.6362 0002214 206.9754  56.2924  1.00270157 34664
ZHONGXING-2C            
1 41021U 15063A   25091.60878098 -.00000330  00000+0  00000+0 0  9991
2 41021   0.2046  94.8900 0001726  18.6710  39.1942  1.00274029 34573
GSAT-15                 
1 41028U 15065A   25091.60878098 -.00000264  00000+0  00000+0 0  9996
2 41028   0.0166 198.0092 0002498 193.5430 111.2964  1.00268976 34377
BADR-7 (ARABSAT-6B)     
1 41029U 15065B   25091.57267027  .00000138  00000+0  00000+0 0  9996
2 41029   0.0277 218.8965 0003150  41.4065 162.0007  1.00271071 34330
LAOSAT 1                
1 41034U 15067A   25091.57961231 -.00000349  00000+0  00000+0 0  9997
2 41034   0.0530  35.0423 0002242 292.1554 200.1408  1.00273185 34433
TELSTAR 12V             
1 41036U 15068A   25091.51016906 -.00000125  00000+0  00000+0 0  9996
2 41036   0.0220 110.8124 0002500 257.2957 350.6494  1.00271113 34195
ELEKTRO-L 2             
1 41105U 15074A   25091.32199932 -.00000121  00000+0  00000+0 0  9996
2 41105   5.5771  75.9459 0002769 227.4393 347.9130  1.00270706 34075
COSMOS 2513             
1 41121U 15075A   25091.45808726 -.00000145  00000+0  00000+0 0  9993
2 41121   0.0536 100.3174 0002341 303.9331  30.9799  1.00271844 34105
EXPRESS-AMU1            
1 41191U 15082A   25091.14905878  .00000150  00000+0  00000+0 0  9995
2 41191   0.0163 190.1311 0003031 163.2665 286.1007  1.00270166 33834
GAOFEN-4                
1 41194U 15083A   25091.51225038 -.00000340  00000+0  00000+0 0  9995
2 41194   0.0530 321.7923 0001560  63.5624  94.7689  1.00266095 34104
BELINTERSAT-1           
1 41238U 16001A   25091.07891856  .00000101  00000+0  00000+0 0  9997
2 41238   0.0358  25.1598 0001128 225.3108  19.1292  1.00274840 33803
EUTELSAT 9B             
1 41310U 16005A   25091.39002925  .00000056  00000+0  00000+0 0  9997
2 41310   0.0522  54.4570 0003749 282.9440   1.9927  1.00273160 33685
SES-9                   
1 41380U 16013A   25091.32961535 -.00000351  00000+0  00000+0 0  9996
2 41380   0.0200 279.0360 0001680 130.1040   7.7289  1.00270574 33006
EUTELSAT 65 WEST A      
1 41382U 16014A   25091.58030772 -.00000282  00000+0  00000+0 0  9990
2 41382   0.0900 304.9609 0001920  58.2656 330.6663  1.00271711 33108
IRNSS-1F                
1 41384U 16015A   25091.25992247  .00000155  00000+0  00000+0 0  9999
2 41384   4.2514 108.2732 0019527 190.7733  16.9136  1.00277385 33235
BEIDOU-2 IGSO-6         
1 41434U 16021A   25088.84366433 -.00000154  00000+0  00000+0 0  9995
2 41434  59.6026  42.4724 0052825 230.2676 312.7751  1.00259023 33012
IRNSS-1G                
1 41469U 16027A   25091.49343678 -.00000339  00000+0  00000+0 0  9995
2 41469   4.1150 109.2016 0006786 315.5702  72.4100  1.00266165 32754
JCSAT-2B                
1 41471U 16028A   25091.30145123 -.00000171  00000+0  00000+0 0  9998
2 41471   0.0183 170.7781 0000945 183.9109  97.7212  1.00269967 32688
THAICOM 8               
1 41552U 16031A   25091.45808726 -.00000128  00000+0  00000+0 0  9995
2 41552   0.0704  34.4774 0004458 336.9493  62.0552  1.00271277 32289
INTELSAT 31 (IS-31)     
1 41581U 16035A   25091.50902101 -.00000156  00000+0  00000+0 0  9990
2 41581   0.0096 211.6435 0002724  14.5737  52.0683  1.00266838 32250
BEIDOU-2 G7             
1 41586U 16037A   25091.60322604 -.00000359  00000+0  00000+0 0  9997
2 41586   1.5780  67.8336 0010301 335.5454 114.5208  1.00270914  2461
ABS-2A (MONGOLSAT-1)    
1 41588U 16038A   25091.09627928 -.00000089  00000+0  00000+0 0  9990
2 41588   0.0221 218.7395 0002164  86.3714 353.9566  1.00268811 32278
EUTELSAT 117 WEST B     
1 41589U 16038B   25091.55137623 -.00000017  00000+0  00000+0 0  9991
2 41589   0.0137 345.3523 0000273 137.4971 148.7950  1.00268897 32234
BRISAT                  
1 41591U 16039A   25091.55739182 -.00000203  00000+0  00000+0 0  9990
2 41591   0.0197 225.5844 0002080 138.2046 177.5208  1.00270988 32182
ECHOSTAR 18             
1 41592U 16039B   25091.53239177 -.00000288  00000+0  00000+0 0  9991
2 41592   0.0172 173.6813 0001381 185.4309 321.3114  1.00271429 32191
MUOS-5                  
1 41622U 16041A   25091.56268416 -.00000150  00000+0  00000+0 0  9997
2 41622   3.1999 297.0657 0192452 258.6427  91.9874  1.00271629 32653
TIANTONG-1 1            
1 41725U 16048A   25091.34502259 -.00000322  00000+0  00000+0 0  9991
2 41725   3.0552  37.2271 0006704 340.8827  37.4090  1.00268562 31846
JCSAT-16                
1 41729U 16050A   25091.45824519 -.00000257  00000+0  00000+0 0  9993
2 41729   0.0185 160.2021 0001702 272.5249  66.2316  1.00269735 31643
USA 270                 
1 41744U 16052A   25085.70656115 -.00000362  00000+0  00000+0 0  9995
2 41744   3.0473  82.8918 0064991 142.6374 332.9419  1.00281286 23645
USA 271                 
1 41745U 16052B   25085.70134832 -.00000245  00000+0  00000+0 0  9993
2 41745   3.0239  82.8936 0000610 270.1456 176.7628  1.00225946 23436
INTELSAT 36 (IS-36)     
1 41747U 16053A   25091.64577560 -.00000031  00000+0  00000+0 0  9998
2 41747   0.0039 217.7135 0001395  81.8574 191.6328  1.00271101 31528
INSAT-3DR               
1 41752U 16054A   25091.45808726 -.00000082  00000+0  00000+0 0  9991
2 41752   0.0954  90.1158 0012050 191.7538 147.0452  1.00270772 31389
GSAT-18                 
1 41793U 16060A   25091.09627928 -.00000082  00000+0  00000+0 0  9996
2 41793   0.0428  95.7823 0001101 144.2457  58.3141  1.00271781 31096
SKY MUSTER 2 (NBN1B)    
1 41794U 16060B   25091.34367749 -.00000250  00000+0  00000+0 0  9994
2 41794   0.0135 242.6619 0001424 120.6859  95.1310  1.00272968 31084
HIMAWARI-9              
1 41836U 16064A   25091.56294689 -.00000281  00000+0  00000+0 0  9995
2 41836   0.0284 125.1902 0000992 284.2406 124.1628  1.00272291 30780
SHIJIAN-17 (SJ-17)      
1 41838U 16065A   25091.71519980  .00000058  00000+0  00000+0 0  9990
2 41838   4.6273  77.9304 0005740 263.2555 288.5579  1.00270440 30805
GOES 16                 
1 41866U 16071A   25091.48322343 -.00000253  00000+0  00000+0 0  9995
2 41866   0.0677 287.5347 0001235  82.5302 278.4694  1.00272474 30677
TIANLIAN 1-04           
1 41869U 16072A   25091.53447450  .00000024  00000+0  00000+0 0  9997
2 41869   0.2786 275.3337 0040270 252.6050  31.3448  1.00271121 30872
WGS F8 (USA 272)        
1 41879U 16075A   25091.61287713 -.00000208  00000+0  00000+0 0  9999
2 41879   0.0052 177.6136 0000390 127.1110 255.9251  1.00273972 30399
FENGYUN 4A              
1 41882U 16077A   25067.80059639 -.00000113  00000+0  00000+0 0  9998
2 41882   1.1339  85.1667 0004787 173.2627 349.1682  1.00660049 30269
ECHOSTAR 19             
1 41893U 16079A   25091.42022615 -.00000144  00000+0  00000+0 0  9995
2 41893   0.0158 191.7206 0001211 159.5728 252.9028  1.00270310 30307
JCSAT-110A (JCSAT-15)   
1 41903U 16082A   25091.62422793 -.00000357  00000+0  00000+0 0  9990
2 41903   0.0171 172.7768 0000576 180.3743 171.8396  1.00270803 30335
STAR ONE D1             
1 41904U 16082B   25091.54350164 -.00000217  00000+0  00000+0 0  9999
2 41904   0.0170 244.9446 0001674 113.4017 303.4556  1.00272689 30347
TJS-2                   
1 41911U 17001A   25091.16850362 -.00000013  00000+0  00000+0 0  9996
2 41911   0.3150 268.7940 0001765 117.4517 290.7491  1.00273953 30283
SBIRS GEO-4 (USA 273)   
1 41937U 17004A   25091.64913095  .00000038  00000+0  00000+0 0  9999
2 41937   1.5549  22.5541 0002195 324.8410 262.6177  0.99998821 30175
HISPASAT 36W-1          
1 41942U 17006A   25091.41781346 -.00000250  00000+0  00000+0 0  9991
2 41942   0.0178  18.6747 0000981 354.5842 291.1701  1.00271199 29787
